$$SOE
2459580.500000000, A.D. 2022-Jan-01 00:00:00.0000, 2.235131581053350E+08, -3.347234189385477E+07, -8.986757892783734E+07,
2459587.500000000, A.D. 2022-Jan-08 00:00:00.0000, 2.234378315100823E+08, -1.875581631427396E+07, -9.157262572142810E+07,
2459594.500000000, A.D. 2022-Jan-15 00:00:00.0000, 2.225994257301288E+08, -3.975392894311361E+06, -9.296487270808163E+07,
2459601.500000000, A.D. 2022-Jan-22 00:00:00.0000, 2.209919242913481E+08, 1.081861043589829E+07, -9.403585778257878E+07,
2459608.500000000, A.D. 2022-Jan-29 00:00:00.0000, 2.186127229102572E+08, 2.557468444590799E+07, -9.477841014718002E+07,
2459615.500000000, A.D. 2022-Feb-05 00:00:00.0000, 2.154627755130486E+08, 4.024044794209276E+07, -9.518675010692056E+07,
2459622.500000000, A.D. 2022-Feb-12 00:00:00.0000, 2.115467088234341E+08, 5.476299336232626E+07, -9.525657827127659E+07,
2459629.500000000, A.D. 2022-Feb-19 00:00:00.0000, 2.068728999414587E+08, 6.908925637386775E+07, -9.498515151305336E+07,
2459636.500000000, A.D. 2022-Feb-26 00:00:00.0000, 2.014535120678398E+08, 8.316640319227479E+07, -9.437134348463675E+07,
2459643.500000000, A.D. 2022-Mar-05 00:00:00.0000, 1.953044858914230E+08, 9.694222864214413E+07, -9.341568789844166E+07,
2459650.500000000, A.D. 2022-Mar-12 00:00:00.0000, 1.884454852659617E+08, 1.103655579117685E+08, -9.212040310450512E+07,
2459657.500000000, A.D. 2022-Mar-19 00:00:00.0000, 1.808997968135657E+08, 1.233866446507929E+08, -9.048939691717404E+07,
2459664.500000000, A.D. 2022-Mar-26 00:00:00.0000, 1.726941842713417E+08, 1.359575578832735E+08, -8.852825113950676E+07,
2459671.500000000, A.D. 2022-Apr-02 00:00:00.0000, 1.638586996808559E+08, 1.480325502884295E+08, -8.624418577746977E+07,
2459678.500000000, A.D. 2022-Apr-09 00:00:00.0000, 1.544264549154912E+08, 1.595684008669168E+08, -8.364600349951708E+07,
2459685.500000000, A.D. 2022-Apr-16 00:00:00.0000, 1.444333582162914E+08, 1.705247263150541E+08, -8.074401538728486E+07,
2459692.500000000, A.D. 2022-Apr-23 00:00:00.0000, 1.339178196936023E+08, 1.808642567262581E+08, -7.754994931174600E+07,
2459699.500000000, A.D. 2022-Apr-30 00:00:00.0000, 1.229204298463371E+08, 1.905530690092380E+08, -7.407684291185701E+07,
2459706.500000000, A.D. 2022-May-07 00:00:00.0000, 1.114836206180939E+08, 1.995607729177935E+08, -7.033892397488564E+07,
2459713.500000000, A.D. 2022-May-14 00:00:00.0000, 9.965131709294748E+07, 2.078606508322818E+08, -6.635148069092447E+07,
2459720.500000000, A.D. 2022-May-21 00:00:00.0000, 8.746858448715325E+07, 2.154297514364996E+08, -6.213072426072977E+07,
2459727.500000000, A.D. 2022-May-28 00:00:00.0000, 7.498127641792780E+07, 2.222489369656605E+08, -5.769364667745768E+07,
2459734.500000000, A.D. 2022-Jun-04 00:00:00.0000, 6.223569075576317E+07, 2.283028854828786E+08, -5.305787647388603E+07,
2459741.500000000, A.D. 2022-Jun-11 00:00:00.0000, 4.927823862787037E+07, 2.335800509469389E+08, -4.824153505058213E+07,
2459748.500000000, A.D. 2022-Jun-18 00:00:00.0000, 3.615513129711001E+07, 2.380725846626406E+08, -4.326309597651541E+07,
2459755.500000000, A.D. 2022-Jun-25 00:00:00.0000, 2.291208880843277E+07, 2.417762222846770E+08, -3.814124938488871E+07,
2459762.500000000, A.D. 2022-Jul-02 00:00:00.0000, 9.594073533781515E+06, 2.446901409423734E+08, -3.289477328674086E+07,
2459769.500000000, A.D. 2022-Jul-09 00:00:00.0000, -3.754948866524589E+06, 2.468167915340181E+08, -2.754241329325441E+07,
2459776.500000000, A.D. 2022-Jul-16 00:00:00.0000, -1.709221982891268E+07, 2.481617122151705E+08, -2.210277178298451E+07,
2459783.500000000, A.D. 2022-Jul-23 00:00:00.0000, -3.037637128151669E+07, 2.487333280081213E+08, -1.659420710149965E+07,
2459790.500000000, A.D. 2022-Jul-30 00:00:00.0000, -4.356758211888552E+07, 2.485427377598436E+08, -1.103474354247627E+07,
2459797.500000000, A.D. 2022-Aug-06 00:00:00.0000, -5.662770494473027E+07, 2.476034933751909E+08, -5.441992572846189E+06,
2459804.500000000, A.D. 2022-Aug-13 00:00:00.0000, -6.952036514574926E+07, 2.459313780052437E+08, 1.669150566427261E+05,
2459811.500000000, A.D. 2022-Aug-20 00:00:00.0000, -8.221103545419566E+07, 2.435441861147218E+08, 5.775386705833048E+06,
2459818.500000000, A.D. 2022-Aug-27 00:00:00.0000, -9.466708779980716E+07, 2.404615076116974E+08, 1.136741514335346E+07,
2459825.500000000, A.D. 2022-Sep-03 00:00:00.0000, -1.068578242756041E+08, 2.367045183266765E+08, 1.692761630466230E+07,
2459832.500000000, A.D. 2022-Sep-10 00:00:00.0000, -1.187544893511239E+08, 2.322957788008488E+08, 2.244125817580724E+07,
2459839.500000000, A.D. 2022-Sep-17 00:00:00.0000, -1.303302655900277E+08, 2.272590429358611E+08, 2.789428153763510E+07,
2459846.500000000, A.D. 2022-Sep-24 00:00:00.0000, -1.415602550464455E+08, 2.216190776492950E+08, 3.327331334973608E+07,
2459853.500000000, A.D. 2022-Oct-01 00:00:00.0000, -1.524214482186134E+08, 2.154014943312474E+08, 3.856567356226636E+07,
2459860.500000000, A.D. 2022-Oct-08 00:00:00.0000, -1.628926821457136E+08, 2.086325930823954E+08, 4.375937616323273E+07,
2459867.500000000, A.D. 2022-Oct-15 00:00:00.0000, -1.729545904488236E+08, 2.013392210953226E+08, 4.884312541705253E+07,
2459874.500000000, A.D. 2022-Oct-22 00:00:00.0000, -1.825895492253387E+08, 1.935486434354860E+08, 5.380630809100160E+07,
2459881.500000000, A.D. 2022-Oct-29 00:00:00.0000, -1.917816178446946E+08, 1.852884233760023E+08, 5.863898191166813E+07,
2459888.500000000, A.D. 2022-Nov-05 00:00:00.0000, -2.005164739320021E+08, 1.765863145998491E+08, 6.333186090719434E+07,
2459895.500000000, A.D. 2022-Nov-12 00:00:00.0000, -2.087813457579640E+08, 1.674701660227446E+08, 6.787629849707574E+07,
2459902.500000000, A.D. 2022-Nov-19 00:00:00.0000, -2.165649438312289E+08, 1.579678377006040E+08, 7.226426884153286E+07,
2459909.500000000, A.D. 2022-Nov-26 00:00:00.0000, -2.238573923463735E+08, 1.481071267691767E+08, 7.648834685719614E+07,
2459916.500000000, A.D. 2022-Dec-03 00:00:00.0000, -2.306501611020432E+08, 1.379157027106676E+08, 8.054168729140784E+07,
2459923.500000000, A.D. 2022-Dec-10 00:00:00.0000, -2.369359984986119E+08, 1.274210512581583E+08, 8.441800321008261E+07,
2459930.500000000, A.D. 2022-Dec-17 00:00:00.0000, -2.427088661299137E+08, 1.166504262048700E+08, 8.811154420437805E+07,
2459937.500000000, A.D. 2022-Dec-24 00:00:00.0000, -2.479638752951955E+08, 1.056308083555953E+08, 9.161707456570153E+07,
2459944.500000000, A.D. 2022-Dec-31 00:00:00.0000, -2.526972254171982E+08, 9.438887105098097E+07, 9.492985162897214E+07,
2459951.500000000, A.D. 2023-Jan-07 00:00:00.0000, -2.569061445068180E+08, 8.295095257625884E+07, 9.804560453813414E+07,
2459958.500000000, A.D. 2023-Jan-14 00:00:00.0000, -2.605888338386144E+08, 7.134303533074179E+07, 1.009605138098171E+08,
2459965.500000000, A.D. 2023-Jan-21 00:00:00.0000, -2.637444176268267E+08, 5.959072800362457E+07, 1.036711916260592E+08,
2459972.500000000, A.D. 2023-Jan-28 00:00:00.0000, -2.663728941204403E+08, 4.771925002341235E+07, 1.061746626080206E+08,
2459979.500000000, A.D. 2023-Feb-04 00:00:00.0000, -2.684750883565702E+08, 3.575342080065327E+07, 1.084683454083293E+08,
2459986.500000000, A.D. 2023-Feb-11 00:00:00.0000, -2.700526083772377E+08, 2.371765308939926E+07, 1.105500353272217E+08,
2459993.500000000, A.D. 2023-Feb-18 00:00:00.0000, -2.711078049646874E+08, 1.163594920936969E+07, 1.124178879412336E+08,
2460000.500000000, A.D. 2023-Feb-25 00:00:00.0000, -2.716437345941162E+08, -4.681004268014431E+05, 1.140704037412451E+08,
2460007.500000000, A.D. 2023-Mar-04 00:00:00.0000, -2.716641254413492E+08, -1.257131682564285E+07, 1.155064137909558E+08,
2460014.500000000, A.D. 2023-Mar-11 00:00:00.0000, -2.711733463437966E+08, -2.465093029723967E+07, 1.167250664122085E+08,
2460021.500000000, A.D. 2023-Mar-18 00:00:00.0000, -2.701763785854286E+08, -3.668457706562210E+07, 1.177258148899653E+08,
2460028.500000000, A.D. 2023-Mar-25 00:00:00.0000, -2.686787902132124E+08, -4.865029492952836E+07, 1.185084061685355E+08,
2460035.500000000, A.D. 2023-Apr-01 00:00:00.0000, -2.666867123657932E+08, -6.052651783329830E+07, 1.190728705199442E+08,
2460042.500000000, A.D. 2023-Apr-08 00:00:00.0000, -2.642068181308585E+08, -7.229206835584971E+07, 1.194195123232377E+08,
2460049.500000000, A.D. 2023-Apr-15 00:00:00.0000, -2.612463061684311E+08, -8.392614944157338E+07, 1.195489020589782E+08,
2460056.500000000, A.D. 2023-Apr-22 00:00:00.0000, -2.578128871959991E+08, -9.540833862843597E+07, 1.194618690877543E+08,
2460063.500000000, A.D. 2023-Apr-29 00:00:00.0000, -2.539147705072264E+08, -1.067185827036792E+08, 1.191594951318972E+08,
2460070.500000000, A.D. 2023-May-06 00:00:00.0000, -2.495606521863554E+08, -1.178371911716229E+08, 1.186431087480213E+08,
2460077.500000000, A.D. 2023-May-13 00:00:00.0000, -2.447597058970695E+08, -1.287448295861045E+08, 1.179142807856110E+08,
2460084.500000000, A.D. 2023-May-20 00:00:00.0000, -2.395215759220780E+08, -1.394225133921099E+08, 1.169748207543977E+08,
2460091.500000000, A.D. 2023-May-27 00:00:00.0000, -2.338563721780988E+08, -1.498516024470898E+08, 1.158267740681208E+08,
2460098.500000000, A.D. 2023-Jun-03 00:00:00.0000, -2.277746670688381E+08, -1.600137963242936E+08, 1.144724201452049E+08,
2460105.500000000, A.D. 2023-Jun-10 00:00:00.0000, -2.212874940709018E+08, -1.698911305325222E+08, 1.129142713394147E+08,
2460112.500000000, A.D. 2023-Jun-17 00:00:00.0000, -2.144063478783859E+08, -1.794659738312353E+08, 1.111550726572324E+08,
2460119.500000000, A.D. 2023-Jun-24 00:00:00.0000, -2.071431856962047E+08, -1.887210267091419E+08, 1.091978022055526E+08,
2460126.500000000, A.D. 2023-Jul-01 00:00:00.0000, -1.995104293381239E+08, -1.976393203300996E+08, 1.070456723890717E+08,
2460133.500000000, A.D. 2023-Jul-08 00:00:00.0000, -1.915209697169151E+08, -2.062042152606236E+08, 1.047021320625461E+08,
2460140.500000000, A.D. 2023-Jul-15 00:00:00.0000, -1.831881749226369E+08, -2.143994029455351E+08, 1.021708695136879E+08,
2460147.500000000, A.D. 2023-Jul-22 00:00:00.0000, -1.745258982910662E+08, -2.222089111027340E+08, 9.945581585925725E+07,
$$EOE